NORAD_CAT_ID,OBJECT_NAME,OBJECT_TYPE,EPOCH,MEAN_MOTION,ECCENTRICITY,INCLINATION,RA_OF_ASC_NODE,ARG_OF_PERICENTER,MEAN_ANOMALY,BSTAR,MEAN_MOTION_DOT,MEAN_MOTION_DDOT,TLE_LINE0,TLE_LINE1,TLE_LINE2,SEMIMAJOR_AXIS,PERIOD,APOGEE,PERIGEE,DECAYED
51136.0,STARLINK-3253,PAYLOAD,2022-04-28 14:00:01,15.08858194,0.0002118,53.2176,153.829,36.7536,144.431,0.00025762,3.816e-05,0.0,0 STARLINK-3253,1 51136U 22005AJ  22118.58334491  .00003816  00000-0  25762-3 0  9999,2 51136  53.2176 153.8290 0002118  36.7536 144.4310 15.08858194  3584,6917.825,95.436,541.155,538.225,0.0
51136.0,STARLINK-3253,PAYLOAD,2022-04-28 20:00:01,15.08850975,0.0001991,53.2177,152.7052,40.7134,59.1912,-0.00058601,-9.605e-05,0.0,0 STARLINK-3253,1 51136U 22005AJ  22118.83334491 -.00009605  00000-0 -58601-3 0  9999,2 51136  53.2177 152.7052 0001991  40.7134  59.1912 15.08850975 16860,6917.847,95.437,541.089,538.3340000000002,0.0
51136.0,STARLINK-3253,PAYLOAD,2022-04-29 14:00:01,15.08824907,0.0002157,53.2174,149.3398,36.1284,179.8654,0.0010859,0.00017029,0.0,0 STARLINK-3253,1 51136U 22005AJ  22119.58334491  .00017029  00000-0  10859-2 0  9991,2 51136  53.2174 149.3398 0002157  36.1284 179.8654 15.08824907  3610,6917.927,95.439,541.284,538.299,0.0
51136.0,STARLINK-3253,PAYLOAD,2022-04-29 22:00:00,15.0880241,0.0001953,53.2175,147.8415,38.4437,189.148,0.0019504,0.00030857,0.0,0 STARLINK-3253,1 51136U 22005AJ  22119.91667824  .00030857  00000-0  19504-2 0  9997,2 51136  53.2175 147.8415 0001953  38.4437 189.1480 15.08802410 17028,6917.995,95.44,541.211,538.509,0.0
51136.0,STARLINK-3253,PAYLOAD,2022-04-30 12:00:00,15.08798806,0.0002214,53.2177,145.2249,35.4675,122.3708,0.0033275,0.00053009,0.0,0 STARLINK-3253,1 51136U 22005AJ  22120.50001157  .00053009  00000-0  33275-2 0  9990,2 51136  53.2177 145.2249 0002214  35.4675 122.3708 15.08798806 17114,6918.005999999999,95.44,541.403,538.34,0.0
51136.0,STARLINK-3253,PAYLOAD,2022-04-30 14:00:01,15.08820621,0.0002203,53.2174,144.8506,35.435,215.2917,0.0016073,0.00025372,0.0,0 STARLINK-3253,1 51136U 22005AJ  22120.58334491  .00025372  00000-0  16073-2 0  9997,2 51136  53.2174 144.8506 0002203  35.4350 215.2917 15.08820621  3570,6917.94,95.439,541.3290000000002,538.281,0.0
51136.0,STARLINK-3253,PAYLOAD,2022-04-30 22:00:00,15.08812735,0.0002039,53.2177,143.3524,39.6588,222.6588,0.0031588,0.00050306,0.0,0 STARLINK-3253,1 51136U 22005AJ  22120.91667824  .00050306  00000-0  31588-2 0  9996,2 51136  53.2177 143.3524 0002039  39.6588 222.6588 15.08812735  3611,6917.964,95.439,541.239,538.418,0.0
51136.0,STARLINK-3253,PAYLOAD,2022-05-01 06:00:00,15.08852551,0.0002175,53.2179,141.8571,39.4044,234.4918,-0.00114,-0.00018392,0.0,0 STARLINK-3253,1 51136U 22005AJ  22121.25001157 -.00018392  00000-0 -11400-2 0  9997,2 51136  53.2179 141.8571 0002175  39.4044 234.4918 15.08852551 17224,6917.842,95.437,541.212,538.202,0.0
51136.0,STARLINK-3253,PAYLOAD,2022-05-01 14:00:01,15.08853237,0.0002243,53.2177,140.3613,35.6754,249.8121,-0.0018132,-0.00029041,0.0,0 STARLINK-3253,1 51136U 22005AJ  22121.58334491 -.00029041  00000-0 -18132-2 0  9995,2 51136  53.2177 140.3613 0002243  35.6754 249.8121 15.08853237  3598,6917.84,95.437,541.257,538.153,0.0
51136.0,STARLINK-3253,PAYLOAD,2022-05-01 22:00:01,15.08801919,0.0002028,53.218,138.8631,38.9784,258.1841,0.0027013,0.00042921,0.0,0 STARLINK-3253,1 51136U 22005AJ  22121.91668981  .00042921  00000-0  27013-2 0  9994,2 51136  53.2180 138.8631 0002028  38.9784 258.1841 15.08801919  3574,6917.996999999999,95.44,541.265,538.4590000000002,0.0
51136.0,STARLINK-3253,PAYLOAD,2022-05-02 14:00:01,15.08833227,0.0002248,53.2179,135.8721,35.4774,284.7657,-0.00019418,-3.377e-05,0.0,0 STARLINK-3253,1 51136U 22005AJ  22122.58334491 -.00003377  00000-0 -19418-3 0  9999,2 51136  53.2179 135.8721 0002248  35.4774 284.7657 15.08833227 17431,6917.901,95.438,541.321,538.211,0.0
51136.0,STARLINK-3253,PAYLOAD,2022-05-02 22:00:01,15.08808938,0.0002052,53.2182,134.3741,40.8316,291.0695,0.0031616,0.00050346,0.0,0 STARLINK-3253,1 51136U 22005AJ  22122.91668981  .00050346  00000-0  31616-2 0  9999,2 51136  53.2182 134.3741 0002052  40.8316 291.0695 15.08808938  3570,6917.975,95.44,541.26,538.4209999999998,0.0
51136.0,STARLINK-3253,PAYLOAD,2022-05-03 14:00:01,15.08846834,0.0002261,53.218,131.38299999999998,37.1277,317.8771,-0.00072195,-0.00011762,0.0,0 STARLINK-3253,1 51136U 22005AJ  22123.58334491 -.00011762  00000-0 -72195-3 0  9998,2 51136  53.2180 131.3830 0002261  37.1277 317.8771 15.08846834  3570,6917.86,95.437,541.289,538.16,0.0
51136.0,STARLINK-3253,PAYLOAD,2022-05-03 22:00:00,15.08818999,0.0002063,53.2182,129.8853,42.6825,323.9286,0.0030904,0.00049212,0.0,0 STARLINK-3253,1 51136U 22005AJ  22123.91667824  .00049212  00000-0  30904-2 0  9994,2 51136  53.2182 129.8853 0002063  42.6825 323.9286 15.08818999 17631,6917.945,95.439,541.237,538.382,0.0
51136.0,STARLINK-3253,PAYLOAD,2022-05-04 12:00:00,15.08834806,0.00023,53.2179,127.2688,38.8061,258.101,0.0018503,0.00029279,0.0,0 STARLINK-3253,1 51136U 22005AJ  22124.50001157  .00029279  00000-0  18503-2 0  9993,2 51136  53.2179 127.2688 0002300  38.8061 258.1010 15.08834806 17716,6917.896,95.438,541.352,538.17,0.0
51136.0,STARLINK-3253,PAYLOAD,2022-05-04 14:00:01,15.08858361,0.0002282,53.2179,126.8942,39.342,350.4588,-0.0010779,-0.00017411,0.0,0 STARLINK-3253,1 51136U 22005AJ  22124.58334491 -.00017411  00000-0 -10779-2 0  9995,2 51136  53.2179 126.8942 0002282  39.3420 350.4588 15.08858361  3609,6917.824000000001,95.436,541.268,538.111,0.0
51136.0,STARLINK-3253,PAYLOAD,2022-05-04 22:00:01,15.0883233,0.0002108,53.218,125.3964,45.1503,356.3326,0.0029382,0.00046775,0.0,0 STARLINK-3253,1 51136U 22005AJ  22124.91668981  .00046775  00000-0  29382-2 0  9999,2 51136  53.2180 125.3964 0002108  45.1503 356.3326 15.08832330  3606,6917.904,95.438,541.227,538.311,0.0
51136.0,STARLINK-3253,PAYLOAD,2022-05-05 06:00:00,15.08864901,0.0002286,53.218,123.9019,42.6506,10.3727,-0.0015622,-0.00025083,0.0,0 STARLINK-3253,1 51136U 22005AJ  22125.25001157 -.00025083  00000-0 -15622-2 0  9996,2 51136  53.2180 123.9019 0002286  42.6506  10.3727 15.08864901 17834,6917.804,95.436,541.251,538.0880000000002,0.0
51136.0,STARLINK-3253,PAYLOAD,2022-05-05 14:00:01,15.08870598,0.0002268,53.2178,122.4052,40.0986,24.5372,-0.0036487,-0.00057941,0.0,0 STARLINK-3253,1 51136U 22005AJ  22125.58334491 -.00057941  00000-0 -36487-2 0  9992,2 51136  53.2178 122.4052 0002268  40.0986  24.5372 15.08870598  3574,6917.7869999999975,95.436,541.221,538.0830000000002,0.0
51136.0,STARLINK-3253,PAYLOAD,2022-05-05 22:00:00,15.08817445,0.0002104,53.218,120.9076,44.8491,31.3971,0.0025435,0.000404,0.0,0 STARLINK-3253,1 51136U 22005AJ  22125.91667824  .00040400  00000-0  25435-2 0  9999,2 51136  53.2180 120.9076 0002104  44.8491  31.3971 15.08817445  3571,6917.949000000001,95.439,541.27,538.359,0.0
51136.0,STARLINK-3253,PAYLOAD,2022-05-06 06:00:00,15.08844488,0.0002308,53.2181,119.4131,42.4814,45.3509,-0.0010315,-0.0001667,0.0,0 STARLINK-3253,1 51136U 22005AJ  22126.25001157 -.00016670  00000-0 -10315-2 0  9993,2 51136  53.2181 119.4131 0002308  42.4814  45.3509 15.08844488 17985,6917.8669999999975,95.437,541.328,538.135,0.0
51136.0,STARLINK-3253,PAYLOAD,2022-05-06 14:00:01,15.08856,0.0002309,53.218,117.9165,40.5731,58.8458,-0.0018235,-0.00029206,0.0,0 STARLINK-3253,1 51136U 22005AJ  22126.58334491 -.00029206  00000-0 -18235-2 0  9997,2 51136  53.2180 117.9165 0002309  40.5731  58.8458 15.08856000  3612,6917.831,95.437,541.294,538.099,0.0
51136.0,STARLINK-3253,PAYLOAD,2022-05-07 06:00:02,15.0882069,0.0002324,53.2184,114.9243,41.1986,81.4727,-0.00068282,-0.00011134,0.0,0 STARLINK-3253,1 51136U 22005AJ  22127.25002315 -.00011134  00000-0 -68282-3 0  9998,2 51136  53.2184 114.9243 0002324  41.1986  81.4727 15.08820690 18136,6917.939,95.439,541.4119999999998,538.197,0.0
51136.0,STARLINK-3253,PAYLOAD,2022-05-07 14:00:01,15.08836084,0.0002319,53.2184,113.4276,40.1818,93.9884,-0.0016649,-0.00026686,0.0,0 STARLINK-3253,1 51136U 22005AJ  22127.58334491 -.00026686  00000-0 -16649-2 0  9994,2 51136  53.2184 113.4276 0002319  40.1818  93.9884 15.08836084  3605,6917.892,95.438,541.362,538.153,0.0
51136.0,STARLINK-3253,PAYLOAD,2022-05-07 22:00:00,15.08817629,0.0002223,53.2188,111.9301,45.4922,100.2606,0.0019603,0.00031029,0.0,0 STARLINK-3253,1 51136U 22005AJ  22127.91667824  .00031029  00000-0  19603-2 0  9998,2 51136  53.2188 111.9301 0002223  45.4922 100.2606 15.08817629 18232,6917.949000000001,95.439,541.352,538.276,0.0
51136.0,STARLINK-3253,PAYLOAD,2022-05-08 14:00:01,15.08852412,0.0002401,53.2188,108.9388,42.3387,126.5749,-0.0018169,-0.00029099,0.0,0 STARLINK-3253,1 51136U 22005AJ  22128.58334491 -.00029099  00000-0 -18169-2 0  9995,2 51136  53.2188 108.9388 0002401  42.3387 126.5749 15.08852412 18331,6917.842,95.437,541.368,538.0459999999998,0.0
51136.0,STARLINK-3253,PAYLOAD,2022-05-08 22:00:00,15.08835981,0.0002315,53.2193,107.4414,47.4118,133.1007,0.0016486,0.00026044,0.0,0 STARLINK-3253,1 51136U 22005AJ  22128.91667824  .00026044  00000-0  16486-2 0  9996,2 51136  53.2193 107.4414 0002315  47.4118 133.1007 15.08835981  3600,6917.893,95.438,541.359,538.156,0.0
51136.0,STARLINK-3253,PAYLOAD,2022-05-09 06:00:00,15.08844329,0.0002514,53.2193,105.9469,43.7802,148.3367,0.00026331,3.905e-05,0.0,0 STARLINK-3253,1 51136U 22005AJ  22129.25001157  .00003905  00000-0  26331-3 0  9997,2 51136  53.2193 105.9469 0002514  43.7802 148.3367 15.08844329 18433,6917.8669999999975,95.437,541.471,537.993,0.0
51136.0,STARLINK-3253,PAYLOAD,2022-05-09 14:00:01,15.08882515,0.0002415,53.2191,104.4497,44.0647,159.7134,-0.004049,-0.00064232,0.0,0 STARLINK-3253,1 51136U 22005AJ  22129.58335648 -.00064232  00000-0 -40490-2 0  9991,2 51136  53.2191 104.4497 0002415  44.0647 159.7134 15.08882515  3607,6917.75,95.435,541.286,537.945,0.0
